0 MOLNIYA 3-8
1 10455U 77105A   20023.37036530  .00000659  00000-0  31317-4 0  9998
2 10455  62.2815 131.6344 7216425 275.3577  13.5459  2.00817975309486
0 TRANSAT
1 10457U 77106A   20023.59798718 +.00000008 +00000-0 -35864-5 0  9999
2 10457 089.7331 148.2415 0023895 271.2785 100.0111 13.48616704077619
0 COSMOS 962
1 10459U 77107A   20023.54249456  .00000066  00000-0  53132-4 0  9997
2 10459  82.9490  67.9143 0029375 146.8963 324.1872 13.74686826118622
0 SL-8 R/B
1 10461U 77107B   20023.55715205 -.00000014 +00000-0 -29472-4 0  9996
2 10461 082.9473 027.8534 0033573 011.1380 104.5850 13.76820961121270
0 SL-8 R/B
1 10461U 77107B   20023.78673725 -.00000014  00000-0 -29222-4 0  9994
2 10461  82.9473  27.6829 0033553  10.4987 162.5335 13.76820952121573
0 SCOUT D-1 R/B
1 10462U 77106B   20023.61560589 +.00000012 +00000-0 +42698-5 0  9998
2 10462 089.7327 148.1992 0023383 298.3100 072.5294 13.48141601502024
0 COSMOS 839 DEB
1 10463U 76067AG  20023.52133957 -.00000076 +00000-0 -74371-4 0  9993
2 10463 065.8230 125.2787 0697347 197.8035 173.9888 12.32331167958523
0 COSMOS 839 DEB
1 10464U 76067AH  20023.49956519 -.00000188 +00000-0 -36945-3 0  9995
2 10464 065.8306 160.0228 0710747 062.2533 008.2692 12.45946556976029
0 COSMOS 839 DEB
1 10464U 76067AH  20023.83923280 -.00000187  00000-0 -36655-3 0  9999
2 10464  65.8306 159.3493 0710750  62.1171  91.8190 12.45946487976276
0 COSMOS 839 DEB
1 10465U 76067AJ  20023.11083356 -.00000384  00000-0 -66045-3 0  9997
2 10465  65.5653 274.7679 0746106 212.2914 143.0277 12.57974325993397
0 COSMOS 839 DEB
1 10466U 76067AK  20023.49626684 +.00000215 +00000-0 +71301-3 0  9998
2 10466 065.8383 039.7684 0715275 007.4547 142.4249 12.49025209980022
0 DELTA 1 DEB
1 10469U 77065EB  20023.30764921 +.00000325 +00000-0 +28264-3 0  9999
2 10469 029.1207 002.2729 0871432 022.4062 341.2278 12.70924535972908
0 DELTA 1 DEB
1 10470U 77065EC  20023.39190269 +.00000130 +00000-0 +19589-5 0  9994
2 10470 029.0965 041.5643 0633797 209.4757 146.8597 13.68444603090599
0 DELTA 1 DEB
1 10471U 77065ED  20023.56160021 +.00000142 +00000-0 +15318-4 0  9995
2 10471 029.0615 173.7884 0860125 343.1496 014.2086 13.21985055043645
0 DELTA 1 DEB
1 10478U 77065EL  20023.55917734 +.00000638 +00000-0 +81834-4 0  9998
2 10478 029.2662 124.4453 0549451 166.5816 195.0035 14.02420116106947
0 DELTA 1 DEB
1 10478U 77065EL  20022.98985308  .00000612  00000-0  77886-4 0  9990
2 10478  29.2660 127.6112 0549450 161.4918 200.6509 14.02419459106899
0 SL-6 R/B(2)
1 10485U 77105E   20022.50590962  .00001323  00000-0  37112-2 0  9995
2 10485  62.2889 178.8217 7177416 273.2219  14.4468  1.97258161303988
0 METEOSAT 1
1 10489U 77108A   20023.01085628 +.00000097 +00000-0 +00000-0 0  9998
2 10489 010.6628 309.1794 0015430 025.0938 165.6681 01.00298785113772
0 DELTA 1 R/B(1)
1 10490U 77108B   20023.54235548 +.00000034 +00000-0 -12126-4 0  9994
2 10490 028.2948 158.2945 1171990 063.7271 307.8894 12.66498251922867
0 COSMOS 963
1 10491U 77109A   20023.50223615 +.00000012 +00000-0 -27231-5 0  9994
2 10491 082.9293 039.3638 0014898 209.3436 303.6265 13.17583043027985
0 SL-8 R/B
1 10492U 77109B   20023.43770609 +.00000077 +00000-0 +15844-3 0  9992
2 10492 082.9238 004.1668 0021149 116.5084 354.6374 13.19674711030406
0 SL-8 R/B
1 10492U 77109B   20023.67821631  .00000077  00000-0  15974-3 0  9994
2 10492  82.9238   4.0044 0021157 115.9268  57.2326 13.19674748 30693
0 COSMOS 967
1 10512U 77116A   20023.53795299 -.00000090  00000-0 -10245-4 0  9994
2 10512  65.8353 117.6032 0028691 296.4418  74.9752 13.75008367114360
0 SL-8 R/B
1 10513U 77116B   20023.18346993 -.00000048  00000-0  32998-4 0  9990
2 10513  65.8331 285.6914 0036188 285.1002 229.3078 13.78534972118883
0 METEOR 2-3
1 10514U 77117A   20023.08364619  .00000139  00000-0  70968-4 0  9995
2 10514  81.2062  13.3247 0024924 105.4424 254.9503 14.10453407165563
0 METEOR 2-3
1 10514U 77117A   20023.43834002 +.00000149 +00000-0 +76257-4 0  9990
2 10514 081.2063 012.9776 0024946 104.4730 255.9211 14.10453514165352
0 SL-3 R/B
1 10515U 77117B   20023.53996303 +.00000171 +00000-0 +91541-4 0  9993
2 10515 081.2418 075.0558 0031392 076.7319 283.7349 14.08699710163347
0 SL-3 R/B
1 10515U 77117B   20023.53996303  .00000171  00000-0  91541-4 0  9993
2 10515  81.2418  75.0558 0031392  76.7319 283.7349 14.08699710163606
0 SAKURA 1A (CS-1A)
1 10516U 77118A   20023.17775567 -.00000211  00000-0  00000+0 0  9993
2 10516  12.5138 319.9675 0005710  14.4210 163.5692  0.98915050112597
0 DELTA 1 R/B(1)
1 10517U 77118B   20023.35692707  .00000321  00000-0  39555-4 0  9991
2 10517  28.6626  55.7294 0846347 355.3771   3.9355 13.39818428 36686
0 DELTA 1 R/B(1)
1 10517U 77118B   20023.43145705 +.00000322 +00000-0 +39700-4 0  9994
2 10517 028.6625 055.3515 0846347 355.9905 003.4194 13.39818459037133
0 SL-8 DEB
1 10518U 77116C   20023.46199840 -.00000064 +00000-0 +17669-4 0  9999
2 10518 065.8317 029.2341 0027504 292.2567 220.4851 13.76987205116108
0 SL-8 DEB
1 10518U 77116C   20023.38019311 -.00000063  00000-0  18505-4 0  9993
2 10518  65.8317  29.4369 0027501 292.2791 174.9818 13.76987204116347
0 DELTA 1 DEB *
1 10519U 77118C   20023.19701820  .00000146  00000-0  11203-4 0  9997
2 10519  29.0652 349.8131 0831037 283.8686  67.0857 13.26047825 25653
0 COSMOS 968
1 10520U 77119A   20023.51045394 -.00000002 +00000-0 +84867-5 0  9992
2 10520 074.0302 112.6003 0018046 197.3053 162.7487 14.36071004203293
0 SL-8 R/B
1 10521U 77119B   20023.22557721 +.00000010 +00000-0 +11517-4 0  9992
2 10521 074.0292 308.6248 0019773 089.7909 270.5512 14.40773000208812
0 SL-8 R/B
1 10521U 77119B   20023.78105893  .00000014  00000-0  12528-4 0  9999
2 10521  74.0292 307.5967 0019779  88.5635 271.7786 14.40773073209151
0 SL-8 DEB
1 10524U 77119C   20023.41605412 +.00000262 +00000-0 +53227-4 0  9990
2 10524 074.0293 273.5722 0010589 138.6771 221.5201 14.66194014222457
0 SL-8 DEB
1 10525U 77119D   20023.51574013  .00000203  00000-0  44138-4 0  9990
2 10525  74.0241 307.6427 0012913 204.7179 155.3372 14.64603413220998
0 SL-8 DEB
1 10526U 77116D   20023.43768892 -.00000045  00000-0  35568-4 0  9991
2 10526  65.8343 105.8566 0028414   3.2842  73.7821 13.77902125114689
0 SL-8 DEB
1 10526U 77116D   20023.51379031 -.00000047 +00000-0 +34058-4 0  9998
2 10526 065.8343 105.6677 0028423 003.2403 091.2851 13.77902108114671
0 SS 1
1 10529U 77112D   20023.36804111  .00000049  00000-0  22624-4 0  9999
2 10529  63.3061  14.8214 0754025 125.4719 241.9107 13.81546865 28438
0 COSMOS 970
1 10531U 77121A   20023.38258527 -.00000089 +00000-0 -13902-4 0  9993
2 10531 065.8520 024.0170 0153535 248.7870 109.6725 13.59790192481717
0 COSMOS 970
1 10531U 77121A   20023.16194092 -.00000089  00000-0 -14707-4 0  9999
2 10531  65.8520  24.5479 0153541 248.8862 109.5722 13.59790195481958
0 COSMOS 970 DEB
1 10535U 77121C   20023.51793226 +.00000062 +00000-0 +14399-3 0  9991
2 10535 065.8499 208.3817 0117057 138.6891 254.5564 13.73920073101641
0 COSMOS 970 DEB
1 10535U 77121C   20023.80509479  .00000061  00000-0  14331-3 0  9993
2 10535  65.8500 207.6739 0117035 138.5407 234.9007 13.73920143101852
0 COSMOS 971
1 10536U 77122A   20023.53759693  .00000010  00000-0 -51681-5 0  9996
2 10536  82.9362 173.9665 0021817  43.4397  26.4694 13.73205003108658
0 SL-8 R/B
1 10537U 77122B   20023.59508697 +.00000033 +00000-0 +18601-4 0  9997
2 10537 082.9349 131.7455 0018811 246.5627 124.5567 13.75262096111486
0 COSMOS 972
1 10539U 77123A   20023.52628679 -.00000013 +00000-0 +72922-6 0  9993
2 10539 075.8330 043.1287 0303474 231.1705 126.1988 13.88806870131640
0 SL-14 R/B
1 10541U 77123B   20023.49684045 +.00000004 +00000-0 +96329-5 0  9996
2 10541 075.8357 034.9642 0300180 214.6028 143.5254 13.88960819132037
0 SS 2
1 10544U 77112E   20023.36631241 +.00000089 +00000-0 +26121-4 0  9998
2 10544 063.3062 009.9043 0752062 125.3123 242.0641 13.82197474028476
0 INTELSAT 4A-F3
1 10557U 78002A   20023.38868737  .00000038  00000-0  00000+0 0  9992
2 10557  13.1918 332.3777 0003313 322.4296  33.2755  0.99898679 98022
0 COSMOS 970 DEB
1 10562U 77121D   20023.15576484  .00000039  00000-0  21253-3 0  9997
2 10562  65.8691 262.9518 0085078  95.2756 346.8407 13.35836977 49485
0 COSMOS 970 DEB
1 10562U 77121D   20023.39916611 +.00000043 +00000-0 +21987-3 0  9992
2 10562 065.8691 262.3904 0085087 095.1480 077.3746 13.35837049049293
0 COSMOS 970 DEB
1 10563U 77121E   20023.42008313 +.00000270 +00000-0 +29026-3 0  9992
2 10563 065.8487 145.5586 0099513 038.3670 322.4422 13.86855446112747
0 COSMOS 970 DEB
1 10564U 77121F   20023.11581318 -.00000003 +00000-0 +81015-4 0  9992
2 10564 065.8651 295.1982 0140995 121.5911 346.1073 13.69560234100658
0 COSMOS 970 DEB
1 10565U 77121G   20023.62796156 +.00000017 +00000-0 +11335-3 0  9998
2 10565 065.8308 332.0157 0127458 284.5045 250.4541 13.64398221090251
0 COSMOS 970 DEB
1 10565U 77121G   20023.33306251  .00000021  00000-0  11793-3 0  9992
2 10565  65.8308 332.7315 0127463 284.6322 241.9740 13.64398169 90515
0 COSMOS 970 DEB *
1 10566U 77121H   20023.51382362 -.00000101 +00000-0 -43868-4 0  9990
2 10566 065.7809 155.5457 0420701 209.6830 147.9727 13.23036829019553
0 COSMOS 970 DEB *
1 10566U 77121H   20023.81618846 -.00000099  00000-0 -41602-4 0  9992
2 10566  65.7809 154.8591 0420768 209.5578 148.1069 13.23036761 19901
0 COSMOS 970 DEB
1 10567U 77121J   20023.48849660 -.00000044  00000-0  46092-4 0  9993
2 10567  65.7951 295.0710 0096228 138.2650  34.8296 13.55102942 81441
0 COSMOS 970 DEB
1 10568U 77121K   20023.51194089 +.00000007 +00000-0 +94390-4 0  9998
2 10568 065.7709 307.9448 0195851 131.0378 230.7793 13.63610847088177
